{
"type": "FeatureCollection",
"name": "ne_10m_roads_oahu",
"crs": { "type": "name", "properties": { "name": "urn:ogc:def:crs:OGC:1.3:CRS84" } },
"features": [
{ "type": "Feature", "properties": { "scalerank": 7, "featurecla": "Road", "type": "Secondary Highway", "sov_a3": "USA", "note": null, "edited": "New in version 2.0.0", "name": "99", "namealt": null, "namealtt": null, "routeraw": null, "question": 0, "length_km": 18, "toll": 0, "ne_part": "ne_1d4_original", "label": null, "label2": null, "local": null, "localtype": null, "localalt": null, "labelrank": 0, "ignore": 0, "add": 0, "rwdb_rd_id": 0, "orig_fid": 0, "prefix": null, "uident": 130705, "continent": "North America", "expressway": 0, "level": "State", "min_zoom": 7.0, "min_label": 9.5 }, "geometry": { "type": "LineString", "coordinates": [ [ -157.986706, 21.400529 ], [ -157.997126, 21.402266 ], [ -158.026648, 21.397056 ], [ -158.052697, 21.3849 ], [ -158.092638, 21.336275 ], [ -158.120424, 21.343221 ] ] } },
{ "type": "Feature", "properties": { "scalerank": 7, "featurecla": "Road", "type": "Secondary Highway", "sov_a3": "USA", "note": null, "edited": "New in version 2.0.0", "name": "99", "namealt": null, "namealtt": null, "routeraw": null, "question": 0, "length_km": 7, "toll": 0, "ne_part": "ne_1d4_original", "label": null, "label2": null, "local": null, "localtype": null, "localalt": null, "labelrank": 0, "ignore": 0, "add": 0, "rwdb_rd_id": 0, "orig_fid": 0, "prefix": null, "uident": 131105, "continent": "North America", "expressway": 0, "level": "State", "min_zoom": 7.0, "min_label": 9.5 }, "geometry": { "type": "LineString", "coordinates": [ [ -157.924189, 21.386636 ], [ -157.929398, 21.393583 ], [ -157.939818, 21.397056 ], [ -157.986706, 21.400529 ] ] } },
{ "type": "Feature", "properties": { "scalerank": 8, "featurecla": "Road", "type": "Secondary Highway", "sov_a3": "USA", "note": null, "edited": "New in version 2.0.0", "name": "92", "namealt": null, "namealtt": null, "routeraw": null, "question": 0, "length_km": 1, "toll": 0, "ne_part": "ne_1d4_original", "label": null, "label2": null, "local": null, "localtype": null, "localalt": null, "labelrank": 0, "ignore": 0, "add": 0, "rwdb_rd_id": 0, "orig_fid": 0, "prefix": null, "uident": 131205, "continent": "North America", "expressway": 0, "level": "State", "min_zoom": 7.1, "min_label": 9.6 }, "geometry": { "type": "LineString", "coordinates": [ [ -157.924189, 21.386636 ], [ -157.925925, 21.37448 ] ] } },
{ "type": "Feature", "properties": { "scalerank": 7, "featurecla": "Road", "type": "Secondary Highway", "sov_a3": "USA", "note": null, "edited": "New in version 2.0.0", "name": "92", "namealt": null, "namealtt": null, "routeraw": null, "question": 0, "length_km": 7, "toll": 0, "ne_part": "ne_1d4_original", "label": null, "label2": null, "local": null, "localtype": null, "localalt": null, "labelrank": 0, "ignore": 0, "add": 0, "rwdb_rd_id": 0, "orig_fid": 0, "prefix": null, "uident": 132405, "continent": "North America", "expressway": 0, "level": "State", "min_zoom": 7.0, "min_label": 9.5 }, "geometry": { "type": "LineString", "coordinates": [ [ -157.870354, 21.353641 ], [ -157.88772, 21.362324 ], [ -157.89814, 21.377953 ], [ -157.924189, 21.386636 ] ] } },
{ "type": "Feature", "properties": { "scalerank": 7, "featurecla": "Road", "type": "Secondary Highway", "sov_a3": "USA", "note": null, "edited": "New in version 2.0.0", "name": "80", "namealt": null, "namealtt": null, "routeraw": null, "question": 0, "length_km": 75, "toll": 0, "ne_part": "ne_1d4_original", "label": null, "label2": null, "local": null, "localtype": null, "localalt": null, "labelrank": 0, "ignore": 0, "add": 0, "rwdb_rd_id": 0, "orig_fid": 0, "prefix": null, "uident": 132605, "continent": "North America", "expressway": 0, "level": "State", "min_zoom": 7.0, "min_label": 9.5 }, "geometry": { "type": "LineString", "coordinates": [ [ -157.986706, 21.400529 ], [ -157.998862, 21.435261 ], [ -157.993652, 21.457837 ], [ -158.007545, 21.469993 ], [ -158.012755, 21.482149 ], [ -158.024911, 21.489095 ], [ -158.068326, 21.581135 ], [ -158.063116, 21.607184 ], [ -158.037067, 21.652335 ], [ -158.019701, 21.671438 ], [ -158.004072, 21.681857 ], [ -157.978023, 21.683594 ], [ -157.958921, 21.659282 ], [ -157.938081, 21.612394 ], [ -157.910296, 21.575925 ], [ -157.889457, 21.555086 ], [ -157.877301, 21.535983 ], [ -157.877301, 21.496042 ], [ -157.865144, 21.464783 ], [ -157.813047, 21.402266 ], [ -157.804364, 21.383163 ] ] } },
{ "type": "Feature", "properties": { "scalerank": 7, "featurecla": "Road", "type": "Secondary Highway", "sov_a3": "USA", "note": null, "edited": "New in version 2.0.0", "name": "83", "namealt": null, "namealtt": null, "routeraw": null, "question": 0, "length_km": 8, "toll": 0, "ne_part": "ne_1d4_original", "label": null, "label2": null, "local": null, "localtype": null, "localalt": null, "labelrank": 0, "ignore": 0, "add": 0, "rwdb_rd_id": 0, "orig_fid": 0, "prefix": null, "uident": 132705, "continent": "North America", "expressway": 0, "level": "State", "min_zoom": 7.0, "min_label": 9.5 }, "geometry": { "type": "LineString", "coordinates": [ [ -157.870354, 21.353641 ], [ -157.804364, 21.383163 ] ] } },
{ "type": "Feature", "properties": { "scalerank": 8, "featurecla": "Road", "type": "Secondary Highway", "sov_a3": "USA", "note": null, "edited": "New in version 2.0.0", "name": "83", "namealt": null, "namealtt": null, "routeraw": null, "question": 0, "length_km": 10, "toll": 0, "ne_part": "ne_1d4_original", "label": null, "label2": null, "local": null, "localtype": null, "localalt": null, "labelrank": 0, "ignore": 0, "add": 0, "rwdb_rd_id": 0, "orig_fid": 0, "prefix": null, "uident": 132905, "continent": "North America", "expressway": 0, "level": "State", "min_zoom": 7.1, "min_label": 9.6 }, "geometry": { "type": "LineString", "coordinates": [ [ -157.804364, 21.383163 ], [ -157.771368, 21.395319 ], [ -157.764422, 21.417895 ], [ -157.750529, 21.440471 ], [ -157.754002, 21.449154 ] ] } },
{ "type": "Feature", "properties": { "scalerank": 7, "featurecla": "Road", "type": "Secondary Highway", "sov_a3": "USA", "note": null, "edited": "New in version 2.0.0", "name": "61", "namealt": null, "namealtt": null, "routeraw": null, "question": 0, "length_km": 14, "toll": 0, "ne_part": "ne_1d4_original", "label": null, "label2": null, "local": null, "localtype": null, "localalt": null, "labelrank": 0, "ignore": 0, "add": 0, "rwdb_rd_id": 0, "orig_fid": 0, "prefix": null, "uident": 134005, "continent": "North America", "expressway": 0, "level": "State", "min_zoom": 7.0, "min_label": 9.5 }, "geometry": { "type": "LineString", "coordinates": [ [ -157.870354, 21.353641 ], [ -157.844305, 21.331065 ], [ -157.825203, 21.320646 ], [ -157.818256, 21.29807 ], [ -157.788734, 21.280704 ], [ -157.776578, 21.278967 ] ] } },
{ "type": "Feature", "properties": { "scalerank": 8, "featurecla": "Road", "type": "Major Highway", "sov_a3": "USA", "note": null, "edited": "New in version 2.0.0", "name": "H3", "namealt": null, "namealtt": null, "routeraw": null, "question": 0, "length_km": 24, "toll": 0, "ne_part": "north_america_extra", "label": null, "label2": null, "local": null, "localtype": null, "localalt": null, "labelrank": 0, "ignore": 0, "add": 0, "rwdb_rd_id": 0, "orig_fid": 1009, "prefix": "I", "uident": 10167, "continent": "North America", "expressway": 1, "level": "Interstate", "min_zoom": 7.1, "min_label": 9.6 }, "geometry": { "type": "LineString", "coordinates": [ [ -157.93016, 21.371478 ], [ -157.907734, 21.375963 ], [ -157.897268, 21.395398 ], [ -157.865872, 21.405864 ], [ -157.818031, 21.404369 ], [ -157.80906, 21.387923 ], [ -157.78514, 21.389418 ], [ -157.770189, 21.408854 ], [ -157.762714, 21.43726 ] ] } }
]
}
