{
"type": "FeatureCollection",
"name": "oahu_gshhs_f",
"crs": { "type": "name", "properties": { "name": "urn:ogc:def:crs:OGC:1.3:CRS84" } },
"features": [
{ "type": "Feature", "properties": { "id": "242", "level": 1, "source": "WVS", "parent_id": -1, "sibling_id": -1, "area": 1572.2471159199999, "a": 1571.4356355814598 }, "geometry": { "type": "Polygon", "coordinates": [ [ [ -158.0, 21.313917 ], [ -158.005917, 21.312694 ], [ -158.007639, 21.312694 ], [ -158.008611, 21.311944 ], [ -158.011806, 21.311806 ], [ -158.012611, 21.311 ], [ -158.014139, 21.310944 ], [ -158.015056, 21.310278 ], [ -158.015972, 21.310222 ], [ -158.016778, 21.309361 ], [ -158.018528, 21.30925 ], [ -158.019139, 21.308583 ], [ -158.020944, 21.308417 ], [ -158.021778, 21.307778 ], [ -158.030861, 21.307611 ], [ -158.032306, 21.306139 ], [ -158.034333, 21.305972 ], [ -158.034639, 21.305556 ], [ -158.03525, 21.305222 ], [ -158.036083, 21.305417 ], [ -158.036972, 21.305917 ], [ -158.046667, 21.305917 ], [ -158.047417, 21.30525 ], [ -158.049944, 21.305194 ], [ -158.050861, 21.304333 ], [ -158.053278, 21.304306 ], [ -158.054389, 21.303444 ], [ -158.058417, 21.303472 ], [ -158.059083, 21.302722 ], [ -158.066, 21.302583 ], [ -158.066778, 21.301917 ], [ -158.070278, 21.301806 ], [ -158.070778, 21.301056 ], [ -158.073694, 21.301028 ], [ -158.074361, 21.300167 ], [ -158.077611, 21.300139 ], [ -158.078361, 21.299389 ], [ -158.080833, 21.299528 ], [ -158.081611, 21.298667 ], [ -158.085167, 21.298444 ], [ -158.085806, 21.29775 ], [ -158.093194, 21.297694 ], [ -158.094278, 21.296944 ], [ -158.101306, 21.296806 ], [ -158.1025, 21.297556 ], [ -158.108194, 21.297722 ], [ -158.109, 21.298528 ], [ -158.109889, 21.298583 ], [ -158.111611, 21.300139 ], [ -158.113028, 21.302278 ], [ -158.113389, 21.303583 ], [ -158.113694, 21.303778 ], [ -158.11425, 21.305028 ], [ -158.117222, 21.30825 ], [ -158.1175, 21.309306 ], [ -158.117472, 21.310167 ], [ -158.118444, 21.311194 ], [ -158.118444, 21.311694 ], [ -158.119056, 21.3125 ], [ -158.119222, 21.312972 ], [ -158.118944, 21.313778 ], [ -158.119556, 21.314528 ], [ -158.12025, 21.316028 ], [ -158.120778, 21.316778 ], [ -158.120778, 21.317639 ], [ -158.121028, 21.318611 ], [ -158.121694, 21.319528 ], [ -158.121639, 21.320778 ], [ -158.122194, 21.321417 ], [ -158.1225, 21.322972 ], [ -158.123111, 21.324194 ], [ -158.123111, 21.325111 ], [ -158.122889, 21.3255 ], [ -158.121139, 21.325833 ], [ -158.121361, 21.326111 ], [ -158.123417, 21.326694 ], [ -158.124306, 21.326778 ], [ -158.125722, 21.328389 ], [ -158.125833, 21.335944 ], [ -158.12675, 21.336694 ], [ -158.126639, 21.337389 ], [ -158.129111, 21.339861 ], [ -158.129111, 21.340806 ], [ -158.129278, 21.340806 ], [ -158.130028, 21.341556 ], [ -158.129889, 21.343083 ], [ -158.130528, 21.344194 ], [ -158.130861, 21.347333 ], [ -158.131611, 21.34825 ], [ -158.131694, 21.351583 ], [ -158.13225, 21.3525 ], [ -158.13225, 21.352861 ], [ -158.13325, 21.354361 ], [ -158.133139, 21.35475 ], [ -158.134083, 21.355917 ], [ -158.134111, 21.357972 ], [ -158.134528, 21.359306 ], [ -158.134722, 21.360556 ], [ -158.135194, 21.361194 ], [ -158.135778, 21.362111 ], [ -158.135806, 21.363361 ], [ -158.136389, 21.364111 ], [ -158.136694, 21.366139 ], [ -158.137111, 21.366417 ], [ -158.137278, 21.366944 ], [ -158.137306, 21.36825 ], [ -158.138694, 21.369639 ], [ -158.139972, 21.37125 ], [ -158.139944, 21.371611 ], [ -158.141472, 21.373389 ], [ -158.141972, 21.374528 ], [ -158.143611, 21.37625 ], [ -158.143806, 21.376944 ], [ -158.14525, 21.378611 ], [ -158.145861, 21.379556 ], [ -158.145833, 21.380056 ], [ -158.146139, 21.380472 ], [ -158.147361, 21.380694 ], [ -158.147972, 21.381278 ], [ -158.147972, 21.381722 ], [ -158.148278, 21.382583 ], [ -158.149361, 21.383806 ], [ -158.15, 21.385083 ], [ -158.152944, 21.388194 ], [ -158.154444, 21.389278 ], [ -158.154944, 21.389333 ], [ -158.156194, 21.3905 ], [ -158.157722, 21.391083 ], [ -158.159139, 21.392639 ], [ -158.159333, 21.393083 ], [ -158.160028, 21.393722 ], [ -158.161472, 21.394306 ], [ -158.163167, 21.39575 ], [ -158.164361, 21.396 ], [ -158.165306, 21.396556 ], [ -158.167611, 21.396972 ], [ -158.168222, 21.3975 ], [ -158.170556, 21.397694 ], [ -158.171194, 21.398139 ], [ -158.172111, 21.398444 ], [ -158.172889, 21.399 ], [ -158.174306, 21.399417 ], [ -158.17675, 21.401722 ], [ -158.178167, 21.403444 ], [ -158.178917, 21.404028 ], [ -158.179111, 21.404778 ], [ -158.179694, 21.405639 ], [ -158.18, 21.405694 ], [ -158.179972, 21.410056 ], [ -158.180944, 21.410861 ], [ -158.180972, 21.420611 ], [ -158.181556, 21.421444 ], [ -158.181556, 21.423194 ], [ -158.182472, 21.424083 ], [ -158.182639, 21.427583 ], [ -158.18325, 21.428194 ], [ -158.183361, 21.43 ], [ -158.185722, 21.432417 ], [ -158.185944, 21.433556 ], [ -158.188361, 21.43575 ], [ -158.188333, 21.436667 ], [ -158.188861, 21.437417 ], [ -158.189167, 21.438389 ], [ -158.193, 21.44225 ], [ -158.193361, 21.443472 ], [ -158.194194, 21.444333 ], [ -158.192417, 21.445972 ], [ -158.192389, 21.447528 ], [ -158.193306, 21.448389 ], [ -158.19425, 21.4485 ], [ -158.196528, 21.450889 ], [ -158.1975, 21.451 ], [ -158.199194, 21.452556 ], [ -158.2, 21.452556 ], [ -158.207528, 21.460056 ], [ -158.208306, 21.460222 ], [ -158.210639, 21.462639 ], [ -158.212194, 21.462528 ], [ -158.213306, 21.461806 ], [ -158.214806, 21.461583 ], [ -158.215611, 21.4625 ], [ -158.21575, 21.463306 ], [ -158.216639, 21.464222 ], [ -158.216056, 21.465083 ], [ -158.216583, 21.466583 ], [ -158.219806, 21.470083 ], [ -158.219889, 21.4725 ], [ -158.220083, 21.4725 ], [ -158.221639, 21.474278 ], [ -158.221583, 21.475722 ], [ -158.222417, 21.476583 ], [ -158.2225, 21.477611 ], [ -158.223333, 21.478306 ], [ -158.22425, 21.478361 ], [ -158.225194, 21.479167 ], [ -158.227861, 21.479361 ], [ -158.228444, 21.48075 ], [ -158.22925, 21.480917 ], [ -158.23075, 21.482361 ], [ -158.231083, 21.483278 ], [ -158.231972, 21.483583 ], [ -158.232583, 21.484083 ], [ -158.232583, 21.484889 ], [ -158.233361, 21.48575 ], [ -158.2335, 21.508417 ], [ -158.232611, 21.509111 ], [ -158.2325, 21.515694 ], [ -158.231806, 21.516722 ], [ -158.231417, 21.525861 ], [ -158.230778, 21.526694 ], [ -158.231528, 21.527694 ], [ -158.230778, 21.52825 ], [ -158.230917, 21.529917 ], [ -158.23175, 21.530833 ], [ -158.231722, 21.534694 ], [ -158.232444, 21.535667 ], [ -158.232444, 21.536472 ], [ -158.235833, 21.539972 ], [ -158.235972, 21.540889 ], [ -158.237361, 21.542444 ], [ -158.2385, 21.542639 ], [ -158.239083, 21.543278 ], [ -158.239167, 21.544194 ], [ -158.240306, 21.544306 ], [ -158.246528, 21.55075 ], [ -158.246528, 21.551611 ], [ -158.249778, 21.555028 ], [ -158.249778, 21.555944 ], [ -158.251556, 21.556861 ], [ -158.254222, 21.559167 ], [ -158.255083, 21.559333 ], [ -158.256278, 21.560667 ], [ -158.257194, 21.560972 ], [ -158.258944, 21.562528 ], [ -158.259722, 21.562528 ], [ -158.260611, 21.563556 ], [ -158.26075, 21.564028 ], [ -158.261361, 21.56425 ], [ -158.263278, 21.566667 ], [ -158.264278, 21.566667 ], [ -158.264778, 21.567417 ], [ -158.265583, 21.567528 ], [ -158.266306, 21.568167 ], [ -158.267417, 21.568417 ], [ -158.268139, 21.569111 ], [ -158.269139, 21.569222 ], [ -158.270972, 21.570889 ], [ -158.271556, 21.570944 ], [ -158.272528, 21.571639 ], [ -158.273889, 21.57175 ], [ -158.275472, 21.572583 ], [ -158.275944, 21.572472 ], [ -158.276861, 21.572583 ], [ -158.278056, 21.574028 ], [ -158.279194, 21.57425 ], [ -158.2795, 21.574611 ], [ -158.281306, 21.57525 ], [ -158.282472, 21.576611 ], [ -158.282722, 21.577083 ], [ -158.28225, 21.57875 ], [ -158.281861, 21.579083 ], [ -158.275056, 21.579222 ], [ -158.274333, 21.579917 ], [ -158.270083, 21.580056 ], [ -158.269278, 21.58075 ], [ -158.266083, 21.580806 ], [ -158.265111, 21.581639 ], [ -158.251056, 21.58175 ], [ -158.250111, 21.582556 ], [ -158.243611, 21.582583 ], [ -158.242694, 21.583278 ], [ -158.230417, 21.583333 ], [ -158.2295, 21.582639 ], [ -158.215972, 21.582528 ], [ -158.215167, 21.58325 ], [ -158.210167, 21.583222 ], [ -158.208972, 21.584306 ], [ -158.200139, 21.584111 ], [ -158.199194, 21.585083 ], [ -158.190972, 21.585083 ], [ -158.190389, 21.585778 ], [ -158.185417, 21.585861 ], [ -158.184528, 21.585167 ], [ -158.18125, 21.585167 ], [ -158.180333, 21.58425 ], [ -158.170417, 21.584194 ], [ -158.169222, 21.583389 ], [ -158.168611, 21.583389 ], [ -158.167778, 21.582556 ], [ -158.164444, 21.582556 ], [ -158.163611, 21.583361 ], [ -158.150917, 21.583444 ], [ -158.150111, 21.584194 ], [ -158.147667, 21.58425 ], [ -158.14675, 21.585056 ], [ -158.145056, 21.585139 ], [ -158.144167, 21.585833 ], [ -158.138694, 21.585861 ], [ -158.137667, 21.586722 ], [ -158.13625, 21.586778 ], [ -158.135139, 21.585889 ], [ -158.125278, 21.585806 ], [ -158.124167, 21.58675 ], [ -158.121722, 21.58675 ], [ -158.120917, 21.585944 ], [ -158.120917, 21.584167 ], [ -158.119972, 21.583417 ], [ -158.119111, 21.584139 ], [ -158.119167, 21.587472 ], [ -158.121278, 21.589722 ], [ -158.121583, 21.590694 ], [ -158.121278, 21.591444 ], [ -158.118, 21.592222 ], [ -158.117889, 21.592417 ], [ -158.11425, 21.592556 ], [ -158.113306, 21.59325 ], [ -158.112694, 21.593417 ], [ -158.112528, 21.594278 ], [ -158.110083, 21.596722 ], [ -158.106583, 21.596778 ], [ -158.106833, 21.600833 ], [ -158.107333, 21.601806 ], [ -158.107333, 21.602556 ], [ -158.10825, 21.602556 ], [ -158.108833, 21.602917 ], [ -158.109444, 21.603667 ], [ -158.109444, 21.604167 ], [ -158.108917, 21.6055 ], [ -158.105611, 21.606 ], [ -158.103611, 21.608056 ], [ -158.1025, 21.608389 ], [ -158.099389, 21.611583 ], [ -158.098306, 21.611639 ], [ -158.088583, 21.621667 ], [ -158.0875, 21.621667 ], [ -158.085056, 21.62425 ], [ -158.083944, 21.624472 ], [ -158.083611, 21.62475 ], [ -158.083639, 21.625028 ], [ -158.083, 21.625778 ], [ -158.081583, 21.626111 ], [ -158.080694, 21.626806 ], [ -158.07975, 21.627944 ], [ -158.078667, 21.628333 ], [ -158.078528, 21.628861 ], [ -158.076861, 21.630806 ], [ -158.076806, 21.631667 ], [ -158.075306, 21.632667 ], [ -158.073944, 21.6345 ], [ -158.073889, 21.634806 ], [ -158.073278, 21.635139 ], [ -158.072694, 21.636 ], [ -158.072639, 21.636861 ], [ -158.071861, 21.638444 ], [ -158.071778, 21.639306 ], [ -158.070139, 21.640806 ], [ -158.069833, 21.640917 ], [ -158.068917, 21.641194 ], [ -158.068806, 21.641361 ], [ -158.068278, 21.641583 ], [ -158.066528, 21.643361 ], [ -158.066611, 21.644778 ], [ -158.067722, 21.646111 ], [ -158.066583, 21.647556 ], [ -158.066583, 21.648417 ], [ -158.066278, 21.64875 ], [ -158.066, 21.649194 ], [ -158.065944, 21.652306 ], [ -158.065111, 21.653278 ], [ -158.065111, 21.653722 ], [ -158.064278, 21.655 ], [ -158.064278, 21.656639 ], [ -158.063861, 21.657 ], [ -158.063556, 21.657667 ], [ -158.063556, 21.658194 ], [ -158.061806, 21.660028 ], [ -158.061, 21.660028 ], [ -158.058389, 21.662472 ], [ -158.058389, 21.663222 ], [ -158.058556, 21.663278 ], [ -158.04925, 21.672583 ], [ -158.048639, 21.672556 ], [ -158.048028, 21.672917 ], [ -158.047083, 21.674 ], [ -158.046028, 21.674167 ], [ -158.045056, 21.674778 ], [ -158.044222, 21.675806 ], [ -158.044194, 21.676722 ], [ -158.043611, 21.677306 ], [ -158.042472, 21.677639 ], [ -158.041361, 21.678556 ], [ -158.040167, 21.680667 ], [ -158.040167, 21.681194 ], [ -158.039861, 21.681972 ], [ -158.038306, 21.683472 ], [ -158.037417, 21.683417 ], [ -158.036806, 21.684083 ], [ -158.035972, 21.684306 ], [ -158.030417, 21.689889 ], [ -158.029528, 21.69 ], [ -158.028556, 21.690972 ], [ -158.027472, 21.690972 ], [ -158.025417, 21.69325 ], [ -158.024222, 21.693472 ], [ -158.018361, 21.699306 ], [ -158.017417, 21.699278 ], [ -158.0165, 21.700083 ], [ -158.011806, 21.700111 ], [ -158.010972, 21.700861 ], [ -158.010917, 21.701667 ], [ -158.010444, 21.702278 ], [ -158.008306, 21.702611 ], [ -158.008, 21.703028 ], [ -158.007667, 21.703194 ], [ -158.002917, 21.703333 ], [ -158.002694, 21.703972 ], [ -158.000861, 21.705972 ], [ -158.001028, 21.707333 ], [ -158.001806, 21.708444 ], [ -158.001833, 21.708778 ], [ -158.0, 21.709861 ], [ -157.996806, 21.709111 ], [ -157.996028, 21.708167 ], [ -157.990222, 21.708028 ], [ -157.986944, 21.711278 ], [ -157.986583, 21.712417 ], [ -157.986, 21.712778 ], [ -157.985833, 21.714028 ], [ -157.98525, 21.714722 ], [ -157.984306, 21.714694 ], [ -157.983806, 21.714528 ], [ -157.982639, 21.71325 ], [ -157.978722, 21.713056 ], [ -157.978278, 21.712361 ], [ -157.967444, 21.712306 ], [ -157.967028, 21.712139 ], [ -157.966694, 21.710861 ], [ -157.964167, 21.708222 ], [ -157.964056, 21.707472 ], [ -157.963278, 21.707278 ], [ -157.960917, 21.704972 ], [ -157.96075, 21.703778 ], [ -157.960333, 21.703306 ], [ -157.959111, 21.703194 ], [ -157.955028, 21.699139 ], [ -157.954889, 21.697944 ], [ -157.954139, 21.697306 ], [ -157.954028, 21.696611 ], [ -157.951972, 21.694139 ], [ -157.950778, 21.693972 ], [ -157.946667, 21.689806 ], [ -157.945667, 21.689694 ], [ -157.944222, 21.687889 ], [ -157.944083, 21.686417 ], [ -157.943472, 21.685528 ], [ -157.943278, 21.684 ], [ -157.94275, 21.684056 ], [ -157.941944, 21.68375 ], [ -157.941639, 21.683056 ], [ -157.941667, 21.682306 ], [ -157.941472, 21.681972 ], [ -157.939639, 21.681167 ], [ -157.939306, 21.680694 ], [ -157.939167, 21.679833 ], [ -157.938944, 21.679417 ], [ -157.936639, 21.678278 ], [ -157.936194, 21.678278 ], [ -157.935306, 21.677583 ], [ -157.934028, 21.677056 ], [ -157.933694, 21.676694 ], [ -157.933417, 21.675778 ], [ -157.933306, 21.674972 ], [ -157.933889, 21.674222 ], [ -157.934667, 21.674111 ], [ -157.935861, 21.673222 ], [ -157.936667, 21.672194 ], [ -157.936806, 21.669028 ], [ -157.936556, 21.667889 ], [ -157.935333, 21.6665 ], [ -157.934333, 21.66625 ], [ -157.933528, 21.66575 ], [ -157.932944, 21.66575 ], [ -157.932333, 21.665444 ], [ -157.932028, 21.664917 ], [ -157.929556, 21.663361 ], [ -157.928917, 21.662833 ], [ -157.9285, 21.662028 ], [ -157.928361, 21.655611 ], [ -157.927528, 21.655611 ], [ -157.926028, 21.654389 ], [ -157.925833, 21.653944 ], [ -157.924917, 21.653917 ], [ -157.9235, 21.652472 ], [ -157.922417, 21.652139 ], [ -157.921611, 21.651444 ], [ -157.918444, 21.651472 ], [ -157.917306, 21.650611 ], [ -157.915111, 21.650528 ], [ -157.914278, 21.649722 ], [ -157.914889, 21.648917 ], [ -157.916056, 21.648889 ], [ -157.916694, 21.648194 ], [ -157.917472, 21.648028 ], [ -157.918417, 21.647333 ], [ -157.919333, 21.645222 ], [ -157.91925, 21.634556 ], [ -157.919639, 21.634278 ], [ -157.92, 21.633583 ], [ -157.920111, 21.632222 ], [ -157.920722, 21.631639 ], [ -157.920889, 21.630778 ], [ -157.920111, 21.62975 ], [ -157.920111, 21.62825 ], [ -157.919667, 21.627611 ], [ -157.918056, 21.627028 ], [ -157.917833, 21.626694 ], [ -157.917472, 21.626333 ], [ -157.916389, 21.626278 ], [ -157.913417, 21.623278 ], [ -157.913111, 21.622194 ], [ -157.912722, 21.621778 ], [ -157.9125, 21.620528 ], [ -157.912056, 21.620111 ], [ -157.911611, 21.618222 ], [ -157.911028, 21.617167 ], [ -157.910778, 21.614528 ], [ -157.910167, 21.613222 ], [ -157.90925, 21.612111 ], [ -157.908, 21.611139 ], [ -157.907278, 21.609806 ], [ -157.905111, 21.609 ], [ -157.904472, 21.608361 ], [ -157.903389, 21.608111 ], [ -157.902778, 21.6075 ], [ -157.901556, 21.607139 ], [ -157.896778, 21.602472 ], [ -157.896611, 21.60125 ], [ -157.894083, 21.598944 ], [ -157.894083, 21.598028 ], [ -157.892583, 21.596417 ], [ -157.892528, 21.595556 ], [ -157.891, 21.594056 ], [ -157.890722, 21.592778 ], [ -157.890083, 21.592306 ], [ -157.889917, 21.591333 ], [ -157.888417, 21.589722 ], [ -157.888306, 21.588222 ], [ -157.887611, 21.58725 ], [ -157.887611, 21.586444 ], [ -157.886722, 21.585639 ], [ -157.886667, 21.584611 ], [ -157.885028, 21.583111 ], [ -157.884861, 21.58225 ], [ -157.88425, 21.581389 ], [ -157.884167, 21.580639 ], [ -157.883444, 21.580583 ], [ -157.882639, 21.579944 ], [ -157.881583, 21.579639 ], [ -157.879417, 21.577389 ], [ -157.878222, 21.577194 ], [ -157.877528, 21.576389 ], [ -157.877528, 21.575722 ], [ -157.875917, 21.573972 ], [ -157.875917, 21.572556 ], [ -157.875083, 21.571444 ], [ -157.875083, 21.559472 ], [ -157.875722, 21.558944 ], [ -157.874972, 21.558833 ], [ -157.874194, 21.558083 ], [ -157.870028, 21.558056 ], [ -157.867361, 21.560444 ], [ -157.866583, 21.560556 ], [ -157.864889, 21.562083 ], [ -157.861611, 21.562194 ], [ -157.860833, 21.561417 ], [ -157.859194, 21.561528 ], [ -157.858389, 21.560667 ], [ -157.855778, 21.560472 ], [ -157.854861, 21.559778 ], [ -157.854028, 21.559611 ], [ -157.85075, 21.556361 ], [ -157.850806, 21.555444 ], [ -157.848361, 21.55325 ], [ -157.848167, 21.552056 ], [ -157.845861, 21.549806 ], [ -157.845694, 21.548889 ], [ -157.845056, 21.547833 ], [ -157.844917, 21.546472 ], [ -157.842667, 21.543972 ], [ -157.842472, 21.543056 ], [ -157.841167, 21.541861 ], [ -157.840972, 21.540694 ], [ -157.840139, 21.539778 ], [ -157.839889, 21.538 ], [ -157.839056, 21.537139 ], [ -157.839028, 21.536333 ], [ -157.8375, 21.534583 ], [ -157.8375, 21.533917 ], [ -157.836722, 21.532861 ], [ -157.836722, 21.530694 ], [ -157.835944, 21.529694 ], [ -157.835861, 21.528222 ], [ -157.835028, 21.527167 ], [ -157.835028, 21.518917 ], [ -157.835917, 21.518111 ], [ -157.835944, 21.512889 ], [ -157.835333, 21.512333 ], [ -157.835028, 21.510611 ], [ -157.835778, 21.509861 ], [ -157.8395, 21.509667 ], [ -157.840167, 21.508917 ], [ -157.844167, 21.509 ], [ -157.845194, 21.508139 ], [ -157.850667, 21.508194 ], [ -157.851722, 21.507444 ], [ -157.85175, 21.501417 ], [ -157.850833, 21.500722 ], [ -157.850861, 21.499111 ], [ -157.85, 21.498083 ], [ -157.85, 21.497333 ], [ -157.848361, 21.495667 ], [ -157.848528, 21.491528 ], [ -157.849139, 21.4905 ], [ -157.849389, 21.489083 ], [ -157.8485, 21.488139 ], [ -157.847444, 21.488194 ], [ -157.846889, 21.487722 ], [ -157.845083, 21.487333 ], [ -157.844611, 21.487083 ], [ -157.844167, 21.486222 ], [ -157.842444, 21.485 ], [ -157.842472, 21.483167 ], [ -157.841528, 21.482194 ], [ -157.841833, 21.475667 ], [ -157.842472, 21.474806 ], [ -157.842472, 21.474111 ], [ -157.843222, 21.47325 ], [ -157.843389, 21.466472 ], [ -157.842472, 21.465556 ], [ -157.842472, 21.465056 ], [ -157.842, 21.464111 ], [ -157.8415, 21.463611 ], [ -157.840083, 21.463083 ], [ -157.839056, 21.462333 ], [ -157.838167, 21.462194 ], [ -157.836556, 21.461056 ], [ -157.836583, 21.462361 ], [ -157.834861, 21.464306 ], [ -157.832972, 21.464222 ], [ -157.832694, 21.463667 ], [ -157.831444, 21.462667 ], [ -157.831139, 21.462111 ], [ -157.829, 21.46025 ], [ -157.827639, 21.459722 ], [ -157.825111, 21.456611 ], [ -157.823222, 21.455917 ], [ -157.820611, 21.455833 ], [ -157.819056, 21.45725 ], [ -157.816639, 21.457361 ], [ -157.815028, 21.455667 ], [ -157.815028, 21.454806 ], [ -157.814417, 21.454306 ], [ -157.814111, 21.453444 ], [ -157.814778, 21.452167 ], [ -157.814306, 21.451417 ], [ -157.814, 21.449944 ], [ -157.814056, 21.449083 ], [ -157.8135, 21.448194 ], [ -157.813361, 21.447417 ], [ -157.812917, 21.446778 ], [ -157.8115, 21.445611 ], [ -157.809972, 21.445611 ], [ -157.809556, 21.445417 ], [ -157.809056, 21.444917 ], [ -157.808139, 21.444778 ], [ -157.807444, 21.444389 ], [ -157.807167, 21.443861 ], [ -157.807167, 21.442944 ], [ -157.807472, 21.442194 ], [ -157.808222, 21.441694 ], [ -157.809, 21.441583 ], [ -157.809306, 21.441306 ], [ -157.809333, 21.440889 ], [ -157.810111, 21.43975 ], [ -157.811306, 21.439083 ], [ -157.811306, 21.438611 ], [ -157.811056, 21.438333 ], [ -157.810917, 21.437361 ], [ -157.803306, 21.429722 ], [ -157.803278, 21.428861 ], [ -157.802417, 21.428167 ], [ -157.801472, 21.428167 ], [ -157.801, 21.427306 ], [ -157.800194, 21.426611 ], [ -157.799333, 21.427333 ], [ -157.796722, 21.427444 ], [ -157.796806, 21.429722 ], [ -157.796472, 21.430417 ], [ -157.795778, 21.43075 ], [ -157.792833, 21.430917 ], [ -157.791861, 21.429861 ], [ -157.79175, 21.427389 ], [ -157.790972, 21.426694 ], [ -157.790028, 21.426528 ], [ -157.789361, 21.425778 ], [ -157.789361, 21.424444 ], [ -157.789056, 21.424278 ], [ -157.788306, 21.423028 ], [ -157.788306, 21.422611 ], [ -157.789806, 21.421306 ], [ -157.790028, 21.420444 ], [ -157.789861, 21.42 ], [ -157.789222, 21.419861 ], [ -157.787806, 21.418306 ], [ -157.787556, 21.416417 ], [ -157.784556, 21.413306 ], [ -157.781639, 21.413222 ], [ -157.781, 21.414028 ], [ -157.779361, 21.414111 ], [ -157.778667, 21.414806 ], [ -157.776917, 21.414833 ], [ -157.776083, 21.415583 ], [ -157.774222, 21.41575 ], [ -157.772667, 21.417333 ], [ -157.770083, 21.417333 ], [ -157.769389, 21.418167 ], [ -157.768361, 21.418167 ], [ -157.7685, 21.419028 ], [ -157.769333, 21.419667 ], [ -157.769, 21.420694 ], [ -157.767583, 21.422278 ], [ -157.767528, 21.4275 ], [ -157.766917, 21.428083 ], [ -157.766667, 21.429 ], [ -157.763417, 21.432361 ], [ -157.763361, 21.434778 ], [ -157.761694, 21.436306 ], [ -157.761528, 21.439056 ], [ -157.763278, 21.439139 ], [ -157.764167, 21.439944 ], [ -157.767583, 21.439972 ], [ -157.768972, 21.441639 ], [ -157.769556, 21.441639 ], [ -157.770639, 21.442389 ], [ -157.772083, 21.442472 ], [ -157.773361, 21.443333 ], [ -157.774889, 21.443389 ], [ -157.775667, 21.443917 ], [ -157.777139, 21.444222 ], [ -157.777944, 21.444222 ], [ -157.780111, 21.446583 ], [ -157.779833, 21.446944 ], [ -157.779917, 21.447389 ], [ -157.780528, 21.447972 ], [ -157.780722, 21.4485 ], [ -157.780722, 21.449 ], [ -157.779222, 21.450944 ], [ -157.779056, 21.451694 ], [ -157.779944, 21.453306 ], [ -157.780111, 21.45375 ], [ -157.779944, 21.454167 ], [ -157.778778, 21.455472 ], [ -157.776972, 21.456083 ], [ -157.776722, 21.457306 ], [ -157.775194, 21.458944 ], [ -157.774694, 21.459111 ], [ -157.772667, 21.459111 ], [ -157.771556, 21.458389 ], [ -157.771028, 21.458972 ], [ -157.770194, 21.458917 ], [ -157.770083, 21.459778 ], [ -157.767583, 21.462222 ], [ -157.767722, 21.463194 ], [ -157.765722, 21.464889 ], [ -157.764167, 21.464944 ], [ -157.762528, 21.463389 ], [ -157.762306, 21.462472 ], [ -157.760806, 21.462444 ], [ -157.759833, 21.461528 ], [ -157.758139, 21.461583 ], [ -157.757528, 21.460944 ], [ -157.756472, 21.460694 ], [ -157.755806, 21.459944 ], [ -157.754889, 21.459889 ], [ -157.752389, 21.457389 ], [ -157.74825, 21.457306 ], [ -157.747472, 21.456667 ], [ -157.746583, 21.457417 ], [ -157.739083, 21.457306 ], [ -157.738194, 21.458222 ], [ -157.737083, 21.458306 ], [ -157.736472, 21.459056 ], [ -157.735722, 21.459167 ], [ -157.733056, 21.461556 ], [ -157.731639, 21.461556 ], [ -157.730611, 21.462333 ], [ -157.729889, 21.461528 ], [ -157.723194, 21.461528 ], [ -157.722583, 21.460917 ], [ -157.722694, 21.459 ], [ -157.721944, 21.458194 ], [ -157.722139, 21.457389 ], [ -157.723333, 21.457111 ], [ -157.724583, 21.456444 ], [ -157.724917, 21.456056 ], [ -157.725222, 21.455306 ], [ -157.725194, 21.453972 ], [ -157.725944, 21.4525 ], [ -157.726111, 21.450778 ], [ -157.726389, 21.449972 ], [ -157.727194, 21.449 ], [ -157.728472, 21.448889 ], [ -157.731639, 21.445778 ], [ -157.733389, 21.445667 ], [ -157.734194, 21.444944 ], [ -157.735833, 21.444889 ], [ -157.736, 21.443861 ], [ -157.73675, 21.443111 ], [ -157.736778, 21.433361 ], [ -157.737306, 21.432444 ], [ -157.737556, 21.4305 ], [ -157.73825, 21.429806 ], [ -157.738361, 21.428889 ], [ -157.739083, 21.428111 ], [ -157.7385, 21.427472 ], [ -157.740056, 21.425639 ], [ -157.742, 21.425722 ], [ -157.743417, 21.423889 ], [ -157.743472, 21.419806 ], [ -157.744056, 21.418972 ], [ -157.744222, 21.415694 ], [ -157.743639, 21.415056 ], [ -157.743472, 21.414361 ], [ -157.740944, 21.411528 ], [ -157.740861, 21.411028 ], [ -157.739389, 21.409278 ], [ -157.739167, 21.407861 ], [ -157.738361, 21.407278 ], [ -157.738306, 21.406417 ], [ -157.734361, 21.402528 ], [ -157.732917, 21.402472 ], [ -157.732361, 21.402306 ], [ -157.732, 21.401889 ], [ -157.73025, 21.401639 ], [ -157.728722, 21.400667 ], [ -157.7275, 21.400833 ], [ -157.726, 21.399278 ], [ -157.724083, 21.399028 ], [ -157.723194, 21.398444 ], [ -157.719, 21.398167 ], [ -157.715167, 21.394083 ], [ -157.714806, 21.393028 ], [ -157.710472, 21.388639 ], [ -157.710028, 21.387278 ], [ -157.71, 21.386167 ], [ -157.709389, 21.385778 ], [ -157.708972, 21.384861 ], [ -157.708472, 21.384111 ], [ -157.708333, 21.383417 ], [ -157.707083, 21.382944 ], [ -157.706667, 21.382361 ], [ -157.706722, 21.380639 ], [ -157.706028, 21.379722 ], [ -157.705861, 21.379333 ], [ -157.705972, 21.375833 ], [ -157.706778, 21.374444 ], [ -157.706917, 21.372278 ], [ -157.7085, 21.370444 ], [ -157.708694, 21.369639 ], [ -157.709444, 21.368861 ], [ -157.709444, 21.367139 ], [ -157.710194, 21.366222 ], [ -157.710333, 21.36225 ], [ -157.709361, 21.361556 ], [ -157.709139, 21.359667 ], [ -157.708472, 21.358861 ], [ -157.708472, 21.357306 ], [ -157.707889, 21.356972 ], [ -157.707667, 21.356389 ], [ -157.707583, 21.355583 ], [ -157.706972, 21.355056 ], [ -157.706778, 21.354028 ], [ -157.706333, 21.353694 ], [ -157.705917, 21.351972 ], [ -157.705222, 21.3515 ], [ -157.704806, 21.350444 ], [ -157.703528, 21.349083 ], [ -157.703417, 21.348333 ], [ -157.702639, 21.347278 ], [ -157.702444, 21.346583 ], [ -157.700944, 21.344806 ], [ -157.700889, 21.344278 ], [ -157.699778, 21.342917 ], [ -157.699194, 21.341417 ], [ -157.698222, 21.340472 ], [ -157.697694, 21.339444 ], [ -157.696417, 21.338111 ], [ -157.695944, 21.33725 ], [ -157.695917, 21.336389 ], [ -157.691111, 21.331528 ], [ -157.690056, 21.331528 ], [ -157.688806, 21.330667 ], [ -157.688361, 21.330722 ], [ -157.687389, 21.329972 ], [ -157.684944, 21.329944 ], [ -157.684167, 21.328972 ], [ -157.68325, 21.329 ], [ -157.682556, 21.328194 ], [ -157.680611, 21.327944 ], [ -157.680306, 21.327833 ], [ -157.680056, 21.327333 ], [ -157.679083, 21.327139 ], [ -157.678306, 21.3265 ], [ -157.677528, 21.326611 ], [ -157.676278, 21.326194 ], [ -157.675639, 21.325667 ], [ -157.673972, 21.325556 ], [ -157.667389, 21.318972 ], [ -157.6665, 21.318833 ], [ -157.665778, 21.31825 ], [ -157.662417, 21.318111 ], [ -157.661556, 21.317306 ], [ -157.661611, 21.3165 ], [ -157.65925, 21.314083 ], [ -157.659278, 21.313222 ], [ -157.658361, 21.313139 ], [ -157.657583, 21.312528 ], [ -157.650778, 21.312278 ], [ -157.649083, 21.310556 ], [ -157.649389, 21.307278 ], [ -157.650139, 21.30625 ], [ -157.65, 21.305222 ], [ -157.650917, 21.304194 ], [ -157.651139, 21.30225 ], [ -157.653111, 21.299972 ], [ -157.654167, 21.29975 ], [ -157.656056, 21.299083 ], [ -157.659333, 21.295611 ], [ -157.659583, 21.294583 ], [ -157.660083, 21.293944 ], [ -157.66, 21.293611 ], [ -157.660056, 21.292861 ], [ -157.660361, 21.292528 ], [ -157.662944, 21.292361 ], [ -157.664222, 21.290833 ], [ -157.665972, 21.290833 ], [ -157.666833, 21.29 ], [ -157.667833, 21.289889 ], [ -157.669333, 21.288278 ], [ -157.670417, 21.288194 ], [ -157.671083, 21.287389 ], [ -157.671833, 21.287333 ], [ -157.672722, 21.286639 ], [ -157.674444, 21.286611 ], [ -157.677528, 21.283417 ], [ -157.677833, 21.282556 ], [ -157.677833, 21.282056 ], [ -157.679389, 21.280667 ], [ -157.680222, 21.280806 ], [ -157.680833, 21.279944 ], [ -157.681972, 21.279833 ], [ -157.682056, 21.279444 ], [ -157.683417, 21.278417 ], [ -157.685139, 21.277639 ], [ -157.686056, 21.276417 ], [ -157.686389, 21.275389 ], [ -157.686778, 21.275056 ], [ -157.68775, 21.272472 ], [ -157.688472, 21.271389 ], [ -157.688361, 21.270944 ], [ -157.688528, 21.270611 ], [ -157.689444, 21.269861 ], [ -157.691, 21.269917 ], [ -157.692722, 21.271611 ], [ -157.6935, 21.271611 ], [ -157.695306, 21.273167 ], [ -157.696861, 21.27325 ], [ -157.696861, 21.270667 ], [ -157.696139, 21.270722 ], [ -157.695056, 21.269444 ], [ -157.69375, 21.268583 ], [ -157.693167, 21.266972 ], [ -157.692556, 21.266083 ], [ -157.6925, 21.265583 ], [ -157.69425, 21.264167 ], [ -157.695472, 21.263944 ], [ -157.695778, 21.263528 ], [ -157.696167, 21.26325 ], [ -157.697083, 21.263194 ], [ -157.697472, 21.262639 ], [ -157.698, 21.262417 ], [ -157.6995, 21.262361 ], [ -157.700028, 21.26175 ], [ -157.702611, 21.261472 ], [ -157.703694, 21.260722 ], [ -157.711222, 21.260806 ], [ -157.711528, 21.261028 ], [ -157.711722, 21.262472 ], [ -157.712694, 21.263167 ], [ -157.714056, 21.265111 ], [ -157.714056, 21.265583 ], [ -157.712694, 21.268194 ], [ -157.712694, 21.268722 ], [ -157.712083, 21.269583 ], [ -157.711889, 21.270389 ], [ -157.710833, 21.272444 ], [ -157.710028, 21.273222 ], [ -157.710028, 21.276444 ], [ -157.710528, 21.276972 ], [ -157.710944, 21.277944 ], [ -157.712194, 21.278417 ], [ -157.712556, 21.278806 ], [ -157.712806, 21.280028 ], [ -157.714417, 21.281917 ], [ -157.715139, 21.282333 ], [ -157.716056, 21.2825 ], [ -157.716833, 21.283194 ], [ -157.717861, 21.283389 ], [ -157.718444, 21.283972 ], [ -157.71975, 21.284194 ], [ -157.721361, 21.284167 ], [ -157.722861, 21.284806 ], [ -157.725306, 21.285111 ], [ -157.726278, 21.285056 ], [ -157.726722, 21.284833 ], [ -157.726639, 21.283972 ], [ -157.726111, 21.283972 ], [ -157.725167, 21.283028 ], [ -157.724944, 21.282167 ], [ -157.725056, 21.281444 ], [ -157.725694, 21.280806 ], [ -157.726222, 21.280694 ], [ -157.728722, 21.280833 ], [ -157.729194, 21.281056 ], [ -157.729944, 21.282278 ], [ -157.730139, 21.282444 ], [ -157.731417, 21.282444 ], [ -157.732167, 21.282972 ], [ -157.732556, 21.283028 ], [ -157.733083, 21.282917 ], [ -157.733861, 21.281833 ], [ -157.736028, 21.280083 ], [ -157.736944, 21.280722 ], [ -157.738806, 21.280917 ], [ -157.739556, 21.281417 ], [ -157.74025, 21.281667 ], [ -157.740778, 21.281667 ], [ -157.7425, 21.281 ], [ -157.745444, 21.2805 ], [ -157.745917, 21.280111 ], [ -157.746556, 21.279806 ], [ -157.747917, 21.279778 ], [ -157.748389, 21.279306 ], [ -157.7495, 21.278972 ], [ -157.750139, 21.278306 ], [ -157.750833, 21.278056 ], [ -157.752583, 21.278139 ], [ -157.753333, 21.277694 ], [ -157.754472, 21.277583 ], [ -157.755222, 21.27725 ], [ -157.755361, 21.2765 ], [ -157.75725, 21.274389 ], [ -157.758083, 21.274111 ], [ -157.759694, 21.274 ], [ -157.760417, 21.274194 ], [ -157.760944, 21.274528 ], [ -157.761583, 21.275806 ], [ -157.762333, 21.276083 ], [ -157.764833, 21.275944 ], [ -157.765583, 21.275306 ], [ -157.767528, 21.275028 ], [ -157.768806, 21.274194 ], [ -157.770667, 21.274028 ], [ -157.770944, 21.273639 ], [ -157.771639, 21.273278 ], [ -157.773306, 21.273083 ], [ -157.774083, 21.272556 ], [ -157.776083, 21.272417 ], [ -157.778583, 21.269833 ], [ -157.778833, 21.268639 ], [ -157.781972, 21.265611 ], [ -157.783, 21.265583 ], [ -157.785222, 21.263278 ], [ -157.786778, 21.263194 ], [ -157.787806, 21.262333 ], [ -157.788639, 21.262111 ], [ -157.78925, 21.262167 ], [ -157.790889, 21.260861 ], [ -157.790889, 21.26 ], [ -157.791917, 21.258917 ], [ -157.792, 21.257444 ], [ -157.792833, 21.256222 ], [ -157.793889, 21.255833 ], [ -157.794944, 21.255833 ], [ -157.795889, 21.256556 ], [ -157.797, 21.256778 ], [ -157.797583, 21.257472 ], [ -157.799306, 21.257778 ], [ -157.801611, 21.257444 ], [ -157.802139, 21.25675 ], [ -157.802972, 21.256583 ], [ -157.805111, 21.256722 ], [ -157.805806, 21.256333 ], [ -157.806222, 21.255917 ], [ -157.814028, 21.255694 ], [ -157.815111, 21.256556 ], [ -157.817528, 21.256694 ], [ -157.818444, 21.257278 ], [ -157.819556, 21.257639 ], [ -157.821722, 21.260056 ], [ -157.821722, 21.260556 ], [ -157.822528, 21.261722 ], [ -157.822806, 21.262639 ], [ -157.823333, 21.263389 ], [ -157.823889, 21.263611 ], [ -157.824222, 21.264306 ], [ -157.824333, 21.265583 ], [ -157.824528, 21.266222 ], [ -157.824972, 21.2665 ], [ -157.825111, 21.270528 ], [ -157.825889, 21.271389 ], [ -157.825889, 21.273111 ], [ -157.829917, 21.277444 ], [ -157.831667, 21.277444 ], [ -157.8325, 21.278194 ], [ -157.833361, 21.278306 ], [ -157.834389, 21.278944 ], [ -157.835694, 21.279083 ], [ -157.837611, 21.28075 ], [ -157.838306, 21.28075 ], [ -157.839222, 21.281694 ], [ -157.840139, 21.281472 ], [ -157.840806, 21.282333 ], [ -157.844306, 21.282528 ], [ -157.845056, 21.283056 ], [ -157.844972, 21.287333 ], [ -157.844194, 21.287972 ], [ -157.843667, 21.287861 ], [ -157.843361, 21.287389 ], [ -157.842972, 21.287278 ], [ -157.84275, 21.287667 ], [ -157.843194, 21.287972 ], [ -157.844056, 21.288361 ], [ -157.845389, 21.288389 ], [ -157.846306, 21.287306 ], [ -157.846778, 21.285694 ], [ -157.847278, 21.28525 ], [ -157.84775, 21.283861 ], [ -157.848167, 21.283417 ], [ -157.848778, 21.28325 ], [ -157.849306, 21.283417 ], [ -157.850806, 21.284694 ], [ -157.851583, 21.285722 ], [ -157.851778, 21.286417 ], [ -157.8505, 21.287611 ], [ -157.850028, 21.28875 ], [ -157.850056, 21.289861 ], [ -157.851583, 21.290139 ], [ -157.852333, 21.290833 ], [ -157.855278, 21.290917 ], [ -157.855667, 21.291333 ], [ -157.857306, 21.291611 ], [ -157.858083, 21.29225 ], [ -157.859806, 21.292389 ], [ -157.860611, 21.292972 ], [ -157.86025, 21.293694 ], [ -157.860417, 21.294111 ], [ -157.861, 21.294278 ], [ -157.861, 21.293528 ], [ -157.861472, 21.292722 ], [ -157.86175, 21.292556 ], [ -157.86275, 21.292444 ], [ -157.865028, 21.292528 ], [ -157.865389, 21.29275 ], [ -157.871028, 21.29825 ], [ -157.870889, 21.299861 ], [ -157.870139, 21.300778 ], [ -157.869944, 21.301639 ], [ -157.8675, 21.303917 ], [ -157.8675, 21.30625 ], [ -157.868556, 21.307528 ], [ -157.868306, 21.311611 ], [ -157.87075, 21.311722 ], [ -157.871528, 21.310861 ], [ -157.87475, 21.313889 ], [ -157.876361, 21.314472 ], [ -157.877167, 21.314417 ], [ -157.878333, 21.314639 ], [ -157.878556, 21.316028 ], [ -157.878861, 21.316194 ], [ -157.879333, 21.317917 ], [ -157.880861, 21.319944 ], [ -157.880944, 21.320528 ], [ -157.881472, 21.32 ], [ -157.881583, 21.318972 ], [ -157.881778, 21.318639 ], [ -157.8825, 21.318278 ], [ -157.887444, 21.318278 ], [ -157.888361, 21.317472 ], [ -157.889194, 21.317417 ], [ -157.890111, 21.316556 ], [ -157.892417, 21.316417 ], [ -157.893194, 21.317278 ], [ -157.893333, 21.318889 ], [ -157.894222, 21.31975 ], [ -157.894306, 21.320611 ], [ -157.894611, 21.32125 ], [ -157.895806, 21.322111 ], [ -157.895833, 21.323889 ], [ -157.897056, 21.325028 ], [ -157.896556, 21.327667 ], [ -157.895861, 21.328194 ], [ -157.895222, 21.328361 ], [ -157.895056, 21.329222 ], [ -157.893306, 21.33075 ], [ -157.893472, 21.333167 ], [ -157.895861, 21.333167 ], [ -157.899972, 21.329194 ], [ -157.900778, 21.329194 ], [ -157.902028, 21.327667 ], [ -157.903389, 21.327556 ], [ -157.903444, 21.327194 ], [ -157.904556, 21.326639 ], [ -157.907444, 21.324139 ], [ -157.907889, 21.32425 ], [ -157.908667, 21.324028 ], [ -157.909278, 21.322944 ], [ -157.90975, 21.322611 ], [ -157.910528, 21.3225 ], [ -157.910944, 21.322194 ], [ -157.91225, 21.321806 ], [ -157.913917, 21.320167 ], [ -157.915194, 21.319778 ], [ -157.915167, 21.319194 ], [ -157.916556, 21.317667 ], [ -157.916972, 21.316056 ], [ -157.919028, 21.314167 ], [ -157.920111, 21.314056 ], [ -157.920889, 21.313194 ], [ -157.922389, 21.313278 ], [ -157.923222, 21.312361 ], [ -157.925667, 21.312556 ], [ -157.926778, 21.311472 ], [ -157.931, 21.3115 ], [ -157.932389, 21.313 ], [ -157.932472, 21.314139 ], [ -157.933, 21.314611 ], [ -157.933889, 21.314611 ], [ -157.934528, 21.314778 ], [ -157.935417, 21.315472 ], [ -157.939917, 21.315806 ], [ -157.940833, 21.316444 ], [ -157.946056, 21.316583 ], [ -157.947222, 21.317444 ], [ -157.95075, 21.317472 ], [ -157.952278, 21.318333 ], [ -157.955861, 21.31825 ], [ -157.956444, 21.318833 ], [ -157.959111, 21.319139 ], [ -157.959889, 21.319944 ], [ -157.961722, 21.319833 ], [ -157.9625, 21.320361 ], [ -157.963278, 21.321333 ], [ -157.963417, 21.322583 ], [ -157.964083, 21.323333 ], [ -157.963889, 21.32425 ], [ -157.964167, 21.324778 ], [ -157.964667, 21.325 ], [ -157.964667, 21.325861 ], [ -157.965167, 21.326972 ], [ -157.966694, 21.327556 ], [ -157.967056, 21.327889 ], [ -157.968417, 21.328194 ], [ -157.969278, 21.328944 ], [ -157.969472, 21.330944 ], [ -157.969278, 21.332028 ], [ -157.969306, 21.332444 ], [ -157.970556, 21.332917 ], [ -157.970806, 21.33325 ], [ -157.970972, 21.334278 ], [ -157.970833, 21.335667 ], [ -157.970917, 21.336056 ], [ -157.971528, 21.336528 ], [ -157.971917, 21.337556 ], [ -157.971806, 21.33975 ], [ -157.967611, 21.343917 ], [ -157.967472, 21.346556 ], [ -157.968194, 21.346833 ], [ -157.968361, 21.347222 ], [ -157.96825, 21.348083 ], [ -157.969139, 21.348556 ], [ -157.969306, 21.352528 ], [ -157.968194, 21.353361 ], [ -157.967611, 21.35325 ], [ -157.966667, 21.354056 ], [ -157.965083, 21.354056 ], [ -157.964333, 21.354778 ], [ -157.960194, 21.354861 ], [ -157.960194, 21.355611 ], [ -157.958333, 21.357389 ], [ -157.956306, 21.357417 ], [ -157.954194, 21.355861 ], [ -157.953389, 21.356556 ], [ -157.95275, 21.355694 ], [ -157.951778, 21.355667 ], [ -157.951167, 21.355056 ], [ -157.949361, 21.354806 ], [ -157.948583, 21.353944 ], [ -157.947528, 21.354056 ], [ -157.946611, 21.35325 ], [ -157.945806, 21.354083 ], [ -157.944694, 21.354139 ], [ -157.944278, 21.355583 ], [ -157.945028, 21.356556 ], [ -157.945167, 21.357306 ], [ -157.944972, 21.358278 ], [ -157.944417, 21.358972 ], [ -157.944722, 21.359417 ], [ -157.945972, 21.358222 ], [ -157.948389, 21.358056 ], [ -157.949361, 21.3575 ], [ -157.949694, 21.357722 ], [ -157.950917, 21.359111 ], [ -157.951, 21.360722 ], [ -157.945778, 21.36575 ], [ -157.944972, 21.366083 ], [ -157.943111, 21.367833 ], [ -157.942389, 21.369278 ], [ -157.94175, 21.369889 ], [ -157.941528, 21.371111 ], [ -157.938667, 21.373833 ], [ -157.938222, 21.375389 ], [ -157.937556, 21.375944 ], [ -157.937417, 21.376417 ], [ -157.9375, 21.37675 ], [ -157.938222, 21.377556 ], [ -157.938944, 21.377639 ], [ -157.939778, 21.376833 ], [ -157.940389, 21.376556 ], [ -157.941917, 21.376389 ], [ -157.942889, 21.376444 ], [ -157.943944, 21.376861 ], [ -157.944222, 21.377306 ], [ -157.944111, 21.378639 ], [ -157.944694, 21.3795 ], [ -157.945194, 21.381 ], [ -157.945667, 21.381333 ], [ -157.946556, 21.381639 ], [ -157.947389, 21.382333 ], [ -157.948306, 21.382556 ], [ -157.948694, 21.383028 ], [ -157.949222, 21.38325 ], [ -157.949917, 21.383194 ], [ -157.950889, 21.383944 ], [ -157.955083, 21.384167 ], [ -157.955667, 21.384667 ], [ -157.958028, 21.384861 ], [ -157.958472, 21.384972 ], [ -157.959083, 21.3855 ], [ -157.959528, 21.386361 ], [ -157.96075, 21.386611 ], [ -157.962222, 21.387972 ], [ -157.964639, 21.388472 ], [ -157.965139, 21.389028 ], [ -157.965889, 21.389222 ], [ -157.966778, 21.389 ], [ -157.967139, 21.388639 ], [ -157.968194, 21.388417 ], [ -157.968806, 21.387611 ], [ -157.969917, 21.387389 ], [ -157.970361, 21.386778 ], [ -157.970361, 21.385972 ], [ -157.969306, 21.383667 ], [ -157.969, 21.383333 ], [ -157.968556, 21.383333 ], [ -157.967944, 21.382972 ], [ -157.967583, 21.381639 ], [ -157.966694, 21.380944 ], [ -157.9665, 21.375667 ], [ -157.966722, 21.374944 ], [ -157.967472, 21.374417 ], [ -157.969778, 21.371694 ], [ -157.970417, 21.371694 ], [ -157.971972, 21.370667 ], [ -157.972389, 21.370611 ], [ -157.973667, 21.371028 ], [ -157.973778, 21.371306 ], [ -157.975472, 21.371667 ], [ -157.976306, 21.372417 ], [ -157.976694, 21.374139 ], [ -157.9775, 21.374722 ], [ -157.978083, 21.375583 ], [ -157.978111, 21.376889 ], [ -157.978889, 21.378111 ], [ -157.97925, 21.378917 ], [ -157.979333, 21.38 ], [ -157.980167, 21.380306 ], [ -157.981083, 21.3815 ], [ -157.982444, 21.382194 ], [ -157.983583, 21.382444 ], [ -157.984167, 21.382722 ], [ -157.984889, 21.383833 ], [ -157.985889, 21.384917 ], [ -157.986278, 21.38625 ], [ -157.986583, 21.38625 ], [ -157.986639, 21.387972 ], [ -157.986972, 21.388472 ], [ -157.987361, 21.388833 ], [ -157.98925, 21.389194 ], [ -157.991806, 21.388917 ], [ -157.993167, 21.38725 ], [ -157.993611, 21.386222 ], [ -157.993472, 21.385722 ], [ -157.992, 21.384028 ], [ -157.991611, 21.382417 ], [ -157.990972, 21.381389 ], [ -157.991028, 21.378639 ], [ -157.990806, 21.378056 ], [ -157.990194, 21.377472 ], [ -157.990194, 21.376861 ], [ -157.988444, 21.37425 ], [ -157.988333, 21.373278 ], [ -157.987722, 21.372306 ], [ -157.987556, 21.371389 ], [ -157.986139, 21.369833 ], [ -157.984917, 21.369139 ], [ -157.981361, 21.369167 ], [ -157.9805, 21.368306 ], [ -157.977639, 21.368417 ], [ -157.976556, 21.367778 ], [ -157.975833, 21.367028 ], [ -157.975639, 21.366389 ], [ -157.975611, 21.364611 ], [ -157.975806, 21.359611 ], [ -157.975028, 21.358806 ], [ -157.975028, 21.358056 ], [ -157.974111, 21.358111 ], [ -157.971639, 21.355639 ], [ -157.971667, 21.353111 ], [ -157.973333, 21.351333 ], [ -157.973444, 21.346417 ], [ -157.972667, 21.345667 ], [ -157.972722, 21.343833 ], [ -157.973306, 21.343083 ], [ -157.975028, 21.343194 ], [ -157.980944, 21.348917 ], [ -157.980917, 21.349889 ], [ -157.981694, 21.350861 ], [ -157.982444, 21.3515 ], [ -157.983111, 21.3515 ], [ -157.983917, 21.351917 ], [ -157.984, 21.352139 ], [ -157.985083, 21.352389 ], [ -157.986, 21.353139 ], [ -157.986583, 21.353361 ], [ -157.988917, 21.353222 ], [ -157.989389, 21.353278 ], [ -157.992611, 21.3565 ], [ -157.992694, 21.357361 ], [ -157.993417, 21.357472 ], [ -157.99375, 21.357667 ], [ -157.994194, 21.358528 ], [ -157.993694, 21.359722 ], [ -157.991111, 21.360167 ], [ -157.990833, 21.361778 ], [ -157.99, 21.36325 ], [ -157.991083, 21.363389 ], [ -157.9925, 21.361611 ], [ -157.99375, 21.361611 ], [ -157.994361, 21.36075 ], [ -157.996889, 21.360722 ], [ -157.997639, 21.359806 ], [ -157.999972, 21.359083 ], [ -158.0, 21.359111 ], [ -158.003361, 21.360972 ], [ -158.003333, 21.365111 ], [ -158.005389, 21.365861 ], [ -158.005917, 21.365861 ], [ -158.0065, 21.366278 ], [ -158.00675, 21.367028 ], [ -158.006889, 21.37 ], [ -158.005667, 21.371361 ], [ -158.005667, 21.372167 ], [ -158.006444, 21.373333 ], [ -158.008028, 21.373667 ], [ -158.008639, 21.373639 ], [ -158.009194, 21.373333 ], [ -158.009806, 21.372778 ], [ -158.010583, 21.372611 ], [ -158.011194, 21.372778 ], [ -158.011528, 21.373139 ], [ -158.011528, 21.374 ], [ -158.012472, 21.374972 ], [ -158.012361, 21.375889 ], [ -158.011861, 21.376583 ], [ -158.011889, 21.377028 ], [ -158.012444, 21.377611 ], [ -158.014472, 21.377861 ], [ -158.015111, 21.378306 ], [ -158.015889, 21.379278 ], [ -158.016611, 21.379111 ], [ -158.016833, 21.378389 ], [ -158.019111, 21.375917 ], [ -158.020083, 21.375944 ], [ -158.020972, 21.374917 ], [ -158.020861, 21.370944 ], [ -158.020667, 21.370944 ], [ -158.01825, 21.368417 ], [ -158.01825, 21.367889 ], [ -158.019111, 21.36675 ], [ -158.021806, 21.366639 ], [ -158.022722, 21.365611 ], [ -158.022389, 21.361667 ], [ -158.02175, 21.360972 ], [ -158.020667, 21.360778 ], [ -158.020056, 21.360111 ], [ -158.018944, 21.360194 ], [ -158.018333, 21.360889 ], [ -158.015583, 21.360861 ], [ -158.014167, 21.359306 ], [ -158.013083, 21.359139 ], [ -158.012361, 21.3585 ], [ -158.009722, 21.358556 ], [ -158.009222, 21.359111 ], [ -158.007722, 21.357889 ], [ -158.007667, 21.357667 ], [ -158.005611, 21.3575 ], [ -158.005, 21.356861 ], [ -158.003917, 21.356611 ], [ -158.000056, 21.355861 ], [ -158.0, 21.355861 ], [ -157.996444, 21.356472 ], [ -157.994222, 21.354056 ], [ -157.994222, 21.353028 ], [ -157.993472, 21.352389 ], [ -157.990611, 21.352306 ], [ -157.990056, 21.3515 ], [ -157.985056, 21.351417 ], [ -157.983389, 21.349861 ], [ -157.983222, 21.349 ], [ -157.981556, 21.347083 ], [ -157.981667, 21.346583 ], [ -157.981056, 21.345833 ], [ -157.979861, 21.345472 ], [ -157.97575, 21.34125 ], [ -157.975861, 21.339833 ], [ -157.975361, 21.33925 ], [ -157.975194, 21.338444 ], [ -157.974278, 21.337528 ], [ -157.974056, 21.331333 ], [ -157.973472, 21.330444 ], [ -157.973583, 21.328333 ], [ -157.972583, 21.32725 ], [ -157.972556, 21.323111 ], [ -157.973167, 21.32225 ], [ -157.974361, 21.321056 ], [ -157.974861, 21.320833 ], [ -157.975861, 21.320778 ], [ -157.979083, 21.317361 ], [ -157.98, 21.317194 ], [ -157.980889, 21.316556 ], [ -157.982139, 21.316389 ], [ -157.983417, 21.316528 ], [ -157.984528, 21.317278 ], [ -157.986639, 21.317333 ], [ -157.987083, 21.317222 ], [ -157.987472, 21.316667 ], [ -157.989583, 21.316556 ], [ -157.989583, 21.316167 ], [ -157.989833, 21.315806 ], [ -157.990667, 21.315639 ], [ -157.992056, 21.314972 ], [ -157.998694, 21.314889 ], [ -158.0, 21.313917 ] ] ] } }
]
}
